LEMUR-2-ANDIS           
1 42838U 17042P   26068.55941107  .00023598  00000+0  79875-3 0  9998
2 42838  97.3659 249.7950 0009101   4.3248 355.8070 15.30557934473198
STARLINK-35940          
1 66617U 25271A   26068.48603159  .00017995  00000+0  61836-3 0  9998
2 66617  53.1569 141.0170 0001314  60.7342 299.3790 15.30192030 17531
