[{"OBJECT_NAME":"LEMUR-2-ANDIS","OBJECT_ID":"2017-042P","EPOCH":"2026-03-09T13:25:33.116448","MEAN_MOTION":15.30557934,"ECCENTRICITY":0.0009101,"INCLINATION":97.3659,"RA_OF_ASC_NODE":249.795,"ARG_OF_PERICENTER":4.3248,"MEAN_ANOMALY":355.807,"EPHEMERIS_TYPE":0,"CLASSIFICATION_TYPE":"U","NORAD_CAT_ID":42838,"ELEMENT_SET_NO":999,"REV_AT_EPOCH":47319,"BSTAR":0.00079875,"MEAN_MOTION_DOT":0.00023598,"MEAN_MOTION_DDOT":0},{"OBJECT_NAME":"STARLINK-35940","OBJECT_ID":"2025-271A","EPOCH":"2026-03-09T11:39:53.129376","MEAN_MOTION":15.3019203,"ECCENTRICITY":0.00013147,"INCLINATION":53.1569,"RA_OF_ASC_NODE":141.017,"ARG_OF_PERICENTER":60.7342,"MEAN_ANOMALY":299.379,"EPHEMERIS_TYPE":0,"CLASSIFICATION_TYPE":"U","NORAD_CAT_ID":66617,"ELEMENT_SET_NO":999,"REV_AT_EPOCH":1753,"BSTAR":0.00061835737,"MEAN_MOTION_DOT":0.00017995,"MEAN_MOTION_DDOT":0}]
